ACS3                    
1 59588U 24077B   24228.57720061  .00000123  00000+0  17923-3 0  9991
2 59588  97.4022 282.9535 0018850 293.5278  66.3893 13.67698118 15521
